{
    "timeScale": 1000,
    "gravitationalConstant": 0.000000000000000000066743,
    "planet": {
        "name": "Earth",
        "mass": 5972000000000000000000000,
        "size": 12742,
        "gm": 398589.196
    },
    "satellites": [
        {
            "name": "ISS",
            "mass": 420000,
            "size": 50,
            "orbitalElements": {
                "Eccentricity": 0.0004875,
                "SemiMajorAxis": 6787,
                "Inclination": 51.6417,
                "LongitudeOfAscendingNode": 84.1259,
                "ArgumentOfPeriapsis": 109.6068,
                "MeanAnomaly": 64.6052
            }
        }
    ]
}
